STARLINK-30930          
1 58385U 23178M   26068.21275338  .00002556  00000+0  98399-4 0  9992
2 58385  53.1624   2.9127 0001328 125.1056 235.0069 15.30204033129690
2025-313BD              
1 67299U 25313BD  26068.62968741  .00081010  00000+0  27634-2 0  9995
2 67299  97.3970 145.2850 0007287 333.4514  26.6352 15.30002360 10838
